#dV2019  9 14  0  0  0.00000000    8640 U+u   IGS14 FIT TUD 
## 2070 518400.00000000    10.00000000 58740 0.0000000000000
+    1   L47  0  0  0  0  0  0  0  0  0  0  0  0  0  0  0  0                          
+          0  0  0  0  0  0  0  0  0  0  0  0  0  0  0  0  0                          
+          0  0  0  0  0  0  0  0  0  0  0  0  0  0  0  0  0                          
+          0  0  0  0  0  0  0  0  0  0  0  0  0  0  0  0  0                          
+          0  0  0  0  0  0  0  0  0  0  0  0  0  0  0  0  0                          
++         0  0  0  0  0  0  0  0  0  0  0  0  0  0  0  0  0                          
++         0  0  0  0  0  0  0  0  0  0  0  0  0  0  0  0  0                          
++         0  0  0  0  0  0  0  0  0  0  0  0  0  0  0  0  0                          
++         0  0  0  0  0  0  0  0  0  0  0  0  0  0  0  0  0                          
++         0  0  0  0  0  0  0  0  0  0  0  0  0  0  0  0  0                          
%c M  cc GPS ccc cccc cccc cccc cccc ccccc ccccc ccccc ccccc                          
%c cc cc ccc ccc cccc cccc cccc cccc ccccc ccccc ccccc ccccc                          
%f  0.0000000  0.000000000  0.00000000000  0.000000000000000                          
%f  0.0000000  0.000000000  0.00000000000  0.000000000000000                          
%i    0    0    0    0      0      0      0      0         0                          
%i    0    0    0    0      0      0      0      0         0                          
/* Created by: RDOD_AR_WGT                                                            
/* Setup     : SWARMA.19.257_RDOD_AR.inp                                              
/* Executed  : 10-May-2021 13:34 UTC, by swarmgen@euclid2.lr.tudelft.nl               
/*                                                                                    
*  2019 09 14 12 50 00.00000000                             
PL47 -4558.9702144 -4786.8658467 -1670.7482358 999999.999999
VL47 11999.7153595 14298.6436544-74061.3249970 999999.999999
*  2019 09 14 12 50 10.00000000                             
PL47 -4546.6744794 -4772.2764099 -1744.7025549 999999.999999
VL47 12591.6317561 14879.7737108-73845.7599524 999999.999999
*  2019 09 14 12 50 20.00000000                             
PL47 -4533.7872098 -4757.1072241 -1818.4366545 999999.999999
VL47 13182.7716680 15458.1294952-73620.8911051 999999.999999
*  2019 09 14 12 50 30.00000000                             
PL47 -4520.3092210 -4741.3610995 -1891.9412458 999999.999999
VL47 13773.0565524 16033.6394407-73386.7485351 999999.999999
*  2019 09 14 12 50 40.00000000                             
PL47 -4506.2414079 -4725.0409174 -1965.2070707 999999.999999
VL47 14362.4075866 16606.2327940-73143.3635008 999999.999999
*  2019 09 14 12 50 50.00000000                             
PL47 -4491.5847433 -4708.1496297 -2038.2249028 999999.999999
VL47 14950.7463375 17175.8389922-72890.7684331 999999.999999
*  2019 09 14 12 51 00.00000000                             
PL47 -4476.3402787 -4690.6902586 -2110.9855487 999999.999999
VL47 15537.9947580 17742.3876809-72628.9969322 999999.999999
*  2019 09 14 12 51 10.00000000                             
PL47 -4460.5091433 -4672.6658967 -2183.4798494 999999.999999
VL47 16124.0745447 18305.8093435-72358.0837648 999999.999999
*  2019 09 14 12 51 20.00000000                             
PL47 -4444.0925453 -4654.0797051 -2255.6986810 999999.999999
VL47 16708.9071477 18866.0353129-72078.0648623 999999.999999
*  2019 09 14 12 51 30.00000000                             
PL47 -4427.0917708 -4634.9349141 -2327.6329563 999999.999999
VL47 17292.4144444 19422.9971511-71788.9773154 999999.999999
*  2019 09 14 12 51 40.00000000                             
PL47 -4409.5081841 -4615.2348216 -2399.2736255 999999.999999
VL47 17874.5187326 19976.6266750-71490.8593654 999999.999999
*  2019 09 14 12 51 50.00000000                             
PL47 -4391.3432270 -4594.9827939 -2470.6116780 999999.999999
VL47 18455.1420986 20526.8565751-71183.7503973 999999.999999
*  2019 09 14 12 52 00.00000000                             
PL47 -4372.5984196 -4574.1822638 -2541.6381428 999999.999999
VL47 19034.2064230 21073.6204241-70867.6909376 999999.999999
*  2019 09 14 12 52 10.00000000                             
PL47 -4353.2753597 -4552.8367305 -2612.3440902 999999.999999
VL47 19611.6340463 21616.8520635-70542.7226548 999999.999999
*  2019 09 14 12 52 20.00000000                             
PL47 -4333.3757228 -4530.9497590 -2682.7206327 999999.999999
VL47 20187.3477639 22156.4856361-70208.8883570 999999.999999
*  2019 09 14 12 52 30.00000000                             
PL47 -4312.9012613 -4508.5249802 -2752.7589262 999999.999999
VL47 20761.2702295 22692.4561911-69866.2319834 999999.999999
*  2019 09 14 12 52 40.00000000                             
PL47 -4291.8538053 -4485.5660890 -2822.4501710 999999.999999
VL47 21333.3238819 23224.6997806-69514.7985881 999999.999999
*  2019 09 14 12 52 50.00000000                             
PL47 -4270.2352620 -4462.0768443 -2891.7856131 999999.999999
VL47 21903.4320499 23753.1524196-69154.6343250 999999.999999
*  2019 09 14 12 53 00.00000000                             
PL47 -4248.0476154 -4438.0610687 -2960.7565451 999999.999999
VL47 22471.5176395 24277.7513551-68785.7864351 999999.999999
*  2019 09 14 12 53 10.00000000                             
PL47 -4225.2929263 -4413.5226471 -3029.3543075 999999.999999
VL47 23037.5044509 24798.4338180-68408.3032371 999999.999999
*  2019 09 14 12 53 20.00000000                             
PL47 -4201.9733315 -4388.4655272 -3097.5702896 999999.999999
VL47 23601.3161189 25315.1380524-68022.2341182 999999.999999
*  2019 09 14 12 53 30.00000000                             
PL47 -4178.0910446 -4362.8937174 -3165.3959306 999999.999999
VL47 24162.8762085 25827.8032360-67627.6295233 999999.999999
*  2019 09 14 12 53 40.00000000                             
PL47 -4153.6483549 -4336.8112872 -3232.8227207 999999.999999
VL47 24722.1088391 26336.3688933-67224.5409467 999999.999999
*  2019 09 14 12 53 50.00000000                             
PL47 -4128.6476279 -4310.2223661 -3299.8422020 999999.999999
VL47 25278.9386674 26840.7749193-66813.0209251 999999.999999
*  2019 09 14 12 54 00.00000000                             
PL47 -4103.0913037 -4283.1311437 -3366.4459699 999999.999999
VL47 25833.2903004 27340.9621530-66393.1230339 999999.999999
*  2019 09 14 12 54 10.00000000                             
PL47 -4076.9818985 -4255.5418675 -3432.6256736 999999.999999
VL47 26385.0882996 27836.8723849-65964.9018847 999999.999999
*  2019 09 14 12 54 20.00000000                             
PL47 -4050.3220032 -4227.4588438 -3498.3730178 999999.999999
VL47 26934.2578022 28328.4477797-65528.4131233 999999.999999
*  2019 09 14 12 54 30.00000000                             
PL47 -4023.1142838 -4198.8864361 -3563.6797629 999999.999999
VL47 27480.7245083 28815.6309093-65083.7134260 999999.999999
*  2019 09 14 12 54 40.00000000                             
PL47 -3995.3614799 -4169.8290649 -3628.5377269 999999.999999
VL47 28024.4141121 29298.3653227-64630.8604924 999999.999999
*  2019 09 14 12 54 50.00000000                             
PL47 -3967.0664061 -4140.2912068 -3692.9387857 999999.999999
VL47 28565.2523123 29776.5955574-64169.9130337 999999.999999
*  2019 09 14 12 55 00.00000000                             
PL47 -3938.2319503 -4110.2773936 -3756.8748746 999999.999999
VL47 29103.1654211 30250.2665720-63700.9307593 999999.999999
*  2019 09 14 12 55 10.00000000                             
PL47 -3908.8610746 -4079.7922116 -3820.3379892 999999.999999
VL47 29638.0803449 30719.3237762-63223.9743678 999999.999999
*  2019 09 14 12 55 20.00000000                             
PL47 -3878.9568134 -4048.8403018 -3883.3201859 999999.999999
VL47 30169.9240337 31183.7135714-62739.1055411 999999.999999
*  2019 09 14 12 55 30.00000000                             
PL47 -3848.5222746 -4017.4263578 -3945.8135836 999999.999999
VL47 30698.6234925 31643.3833588-62246.3869392 999999.999999
*  2019 09 14 12 55 40.00000000                             
PL47 -3817.5606386 -3985.5551258 -4007.8103644 999999.999999
VL47 31224.1063798 32098.2809892-61745.8821918 999999.999999
*  2019 09 14 12 55 50.00000000                             
PL47 -3786.0751580 -3953.2314038 -4069.3027742 999999.999999
VL47 31746.3009937 32548.3547990-61237.6558858 999999.999999
*  2019 09 14 12 56 00.00000000                             
PL47 -3754.0691566 -3920.4600411 -4130.2831241 999999.999999
VL47 32265.1357404 32993.5541368-60721.7735496 999999.999999
*  2019 09 14 12 56 10.00000000                             
PL47 -3721.5460303 -3887.2459369 -4190.7437914 999999.999999
VL47 32780.5391396 33433.8293713-60198.3016393 999999.999999
*  2019 09 14 12 56 20.00000000                             
PL47 -3688.5092457 -3853.5940401 -4250.6772200 999999.999999
VL47 33292.4403975 33869.1313529-59667.3075255 999999.999999
*  2019 09 14 12 56 30.00000000                             
PL47 -3654.9623402 -3819.5093481 -4310.0759218 999999.999999
VL47 33800.7693841 34299.4114472-59128.8594825 999999.999999
*  2019 09 14 12 56 40.00000000                             
PL47 -3620.9089210 -3784.9969070 -4368.9324774 999999.999999
VL47 34305.4561246 34724.6220320-58583.0266774 999999.999999
*  2019 09 14 12 56 50.00000000                             
PL47 -3586.3526654 -3750.0618094 -4427.2395369 999999.999999
VL47 34806.4307344 35144.7165720-58029.8791598 999999.999999
*  2019 09 14 12 57 00.00000000                             
PL47 -3551.2973199 -3714.7091947 -4484.9898211 999999.999999
VL47 35303.6243488 35559.6487403-57469.4878513 999999.999999
*  2019 09 14 12 57 10.00000000                             
PL47 -3515.7467000 -3678.9442478 -4542.1761219 999999.999999
VL47 35796.9680198 35969.3734850-56901.9245341 999999.999999
EOF                                                         
